NORAD_CAT_ID,OBJECT_NAME,OBJECT_TYPE,EPOCH,MEAN_MOTION,ECCENTRICITY,INCLINATION,RA_OF_ASC_NODE,ARG_OF_PERICENTER,MEAN_ANOMALY,BSTAR,MEAN_MOTION_DOT,MEAN_MOTION_DDOT,TLE_LINE0,TLE_LINE1,TLE_LINE2,SEMIMAJOR_AXIS,PERIOD,APOGEE,PERIGEE,DECAYED
49730.0,STARLINK-3249,PAYLOAD,2022-07-31 07:52:58,15.08838911,0.0001395999999999,53.2168,312.9812,66.6269,293.4869,3.942e-05,3.39e-06,0.0,0 STARLINK-3249,1 49730U 21115G   22212.32845388  .00000339  00000-0  39420-4 0  9990,2 49730  53.2168 312.9812 0001396  66.6269 293.4869 15.08838911 37623,6917.884,95.438,540.714,538.783,0.0
49730.0,STARLINK-3249,PAYLOAD,2022-07-31 15:49:54,15.08841127,0.0001415,53.2168,311.4944,66.2233,293.8908,8.3543e-05,1.042e-05,0.0,0 STARLINK-3249,1 49730U 21115G   22212.65965350  .00001042  00000-0  83543-4 0  9995,2 49730  53.2168 311.4944 0001415  66.2233 293.8908 15.08841127 36565,6917.877,95.437,540.721,538.763,0.0
49730.0,STARLINK-3249,PAYLOAD,2022-08-01 12:29:54,15.08847517,0.0001391,53.2163,307.6287,65.2948,294.8189,0.00025975,3.849e-05,0.0,0 STARLINK-3249,1 49730U 21115G   22213.52077118  .00003849  00000-0  25975-3 0  9999,2 49730  53.2163 307.6287 0001391  65.2948 294.8189 15.08847517 37801,6917.857,95.437,540.685,538.76,0.0
49730.0,STARLINK-3249,PAYLOAD,2022-08-01 15:40:40,15.08849214,0.000139,53.2162,307.0339,65.157,294.9566,0.00025761,3.815e-05,0.0,0 STARLINK-3249,1 49730U 21115G   22213.65325011  .00003815  00000-0  25761-3 0  9997,2 49730  53.2162 307.0339 0001390  65.1570 294.9566 15.08849214 36716,6917.852,95.437,540.679,538.756,0.0
49730.0,STARLINK-3249,PAYLOAD,2022-08-02 12:20:41,15.08841228,0.0001529,53.2164,303.1688,66.828,293.2873,3.6275e-05,2.89e-06,0.0,0 STARLINK-3249,1 49730U 21115G   22214.51437215  .00000289  00000-0  36275-4 0  9998,2 49730  53.2164 303.1688 0001529  66.8280 293.2873 15.08841228 36846,6917.877,95.437,540.799,538.684,0.0
49730.0,STARLINK-3249,PAYLOAD,2022-08-03 12:11:28,15.088487900000002,0.0001501,53.2159,298.708,64.2612,295.8535,0.0001115,1.487e-05,0.0,0 STARLINK-3249,1 49730U 21115G   22215.50796646  .00001487  00000-0  11150-3 0  9999,2 49730  53.2159 298.7080 0001501  64.2612 295.8535 15.08848790 36996,6917.854,95.437,540.757,538.68,0.0
49730.0,STARLINK-3249,PAYLOAD,2022-08-03 13:46:51,15.08848198,0.0001561999999999,53.2161,298.4105,69.59899999999999,290.517,0.00010648,1.407e-05,0.0,0 STARLINK-3249,1 49730U 21115G   22215.57420654  .00001407  00000-0  10648-3 0  9992,2 49730  53.2161 298.4105 0001562  69.5990 290.5170 15.08848198 37000,6917.855,95.437,540.8009999999998,538.64,0.0
49730.0,STARLINK-3249,PAYLOAD,2022-08-04 12:02:15,15.08835106,0.0001464,53.2167,294.2472,65.1328,294.9816,4.3881e-05,4.1e-06,0.0,0 STARLINK-3249,1 49730U 21115G   22216.50157300  .00000410  00000-0  43881-4 0  9990,2 49730  53.2167 294.2472 0001464  65.1328 294.9816 15.08835106 38253,6917.895,95.438,540.773,538.748,0.0
49730.0,STARLINK-3249,PAYLOAD,2022-08-04 16:48:25,15.08837062,0.0001465,53.2167,293.3552,62.92,297.1941,4.6938e-05,4.59e-06,0.0,0 STARLINK-3249,1 49730U 21115G   22216.70029151  .00000459  00000-0  46938-4 0  9993,2 49730  53.2167 293.3552 0001465  62.9200 297.1941 15.08837062 37174,6917.889,95.438,540.768,538.741,0.0
49730.0,STARLINK-3249,PAYLOAD,2022-08-05 11:53:02,15.08843768,0.0001460999999999,53.2165,289.7870000000001,61.9189,298.1951,4.4421e-05,4.19e-06,0.0,0 STARLINK-3249,1 49730U 21115G   22217.49516693  .00000419  00000-0  44421-4 0  9993,2 49730  53.2165 289.7870 0001461  61.9189 298.1951 15.08843768 38404,6917.869000000002,95.437,540.745,538.7230000000002,0.0
49730.0,STARLINK-3249,PAYLOAD,2022-08-05 13:28:25,15.08844307,0.0001463,53.2164,289.4895,61.8141,298.2998,4.7532e-05,4.69e-06,0.0,0 STARLINK-3249,1 49730U 21115G   22217.56140630  .00000469  00000-0  47532-4 0  9996,2 49730  53.2164 289.4895 0001463  61.8141 298.2998 15.08844307 37306,6917.8669999999975,95.437,540.744,538.72,0.0
49730.0,STARLINK-3249,PAYLOAD,2022-08-06 05:22:17,15.08830211,0.0001435,53.2163,286.5156,61.5568,298.5569,2.994e-05,1.88e-06,0.0,0 STARLINK-3249,1 49730U 21115G   22218.22381727  .00000188  00000-0  29940-4 0  9995,2 49730  53.2163 286.5156 0001435  61.5568 298.5569 15.08830211 38512,6917.91,95.438,540.768,538.783,0.0
49730.0,STARLINK-3249,PAYLOAD,2022-08-06 10:08:27,15.08828875,0.0001408,53.2162,285.6234,61.6333,298.4801,1.3457e-05,-7.4e-07,0.0,0 STARLINK-3249,1 49730U 21115G   22218.42253961 -.00000074  00000-0  13457-4 0  9996,2 49730  53.2162 285.6234 0001408  61.6333 298.4801 15.08828875 37430,6917.9140000000025,95.438,540.753,538.805,0.0
49730.0,STARLINK-3249,PAYLOAD,2022-08-07 11:34:37,15.08840193,0.0001415,53.2162,280.8651,62.6214,297.4922,4.1188e-05,3.68e-06,0.0,0 STARLINK-3249,1 49730U 21115G   22219.48237651  .00000368  00000-0  41188-4 0  9998,2 49730  53.2162 280.8651 0001415  62.6214 297.4922 15.08840193 38708,6917.88,95.438,540.724,538.766,0.0
49730.0,STARLINK-3249,PAYLOAD,2022-08-07 16:20:46,15.08840075,0.0001448,53.2161,279.9727,60.6306,299.4831,3.6782e-05,2.97e-06,0.0,0 STARLINK-3249,1 49730U 21115G   22219.68109696  .00000297  00000-0  36782-4 0  9992,2 49730  53.2161 279.9727 0001448  60.6306 299.4831 15.08840075 37626,6917.88,95.438,540.747,538.743,0.0
49730.0,STARLINK-3249,PAYLOAD,2022-08-08 11:25:23,15.08851026,0.0001383,53.2158,276.4048,57.3236,302.789,0.00023066,3.386e-05,0.0,0 STARLINK-3249,1 49730U 21115G   22220.47596695  .00003386  00000-0  23066-3 0  9992,2 49730  53.2158 276.4048 0001383  57.3236 302.7890 15.08851026 37747,6917.847,95.437,540.668,538.755,0.0
49730.0,STARLINK-3249,PAYLOAD,2022-08-08 16:11:33,15.08853271,0.0001419999999999,53.2151,275.5128,56.6947,303.4181,0.00029812,4.462e-05,0.0,0 STARLINK-3249,1 49730U 21115G   22220.67468840  .00004462  00000-0  29812-3 0  9995,2 49730  53.2151 275.5128 0001420  56.6947 303.4181 15.08853271 37770,6917.84,95.437,540.687,538.722,0.0
49730.0,STARLINK-3249,PAYLOAD,2022-08-09 06:30:00,15.08867639,0.000214,53.216,272.836,93.9202,266.2035,0.00037617,5.708e-05,0.0,0 STARLINK-3249,1 49730U 21115G   22221.27083623  .00005708  00000-0  37617-3 0  9990,2 49730  53.2160 272.8360 0002140  93.9202 266.2035 15.08867639 37863,6917.795999999999,95.436,541.141,538.181,0.0
49730.0,STARLINK-3249,PAYLOAD,2022-08-09 12:51:33,15.08850046,0.0001351999999999,53.2154,271.6451,59.9896,300.123,-5.3214e-05,-1.135e-05,0.0,0 STARLINK-3249,1 49730U 21115G   22221.53580660 -.00001135  00000-0 -53214-4 0  9996,2 49730  53.2154 271.6451 0001352  59.9896 300.1230 15.08850046 39017,6917.85,95.437,540.65,538.779,0.0
49730.0,STARLINK-3249,PAYLOAD,2022-08-10 12:42:22,15.0883031,0.0001541,53.2158,267.1857,56.5282,303.5857,-0.00016594,-2.927e-05,0.0,0 STARLINK-3249,1 49730U 21115G   22222.52942645 -.00002927  00000-0 -16594-3 0  9990,2 49730  53.2158 267.1857 0001541  56.5282 303.5857 15.08830310 38050,6917.91,95.438,540.841,538.7090000000002,0.0
49730.0,STARLINK-3249,PAYLOAD,2022-08-10 14:17:45,15.08830591,0.0001573,53.216,266.8886,55.9194,304.1947,-0.00016063,-2.843e-05,0.0,0 STARLINK-3249,1 49730U 21115G   22222.59566641 -.00002843  00000-0 -16063-3 0  9993,2 49730  53.2160 266.8886 0001573  55.9194 304.1947 15.08830591 39173,6917.909000000002,95.438,540.862,538.686,0.0
49730.0,STARLINK-3249,PAYLOAD,2022-08-11 12:33:09,15.08825996,0.0001529,53.2156,262.726,57.7511,302.363,-2.7781e-05,-7.299999999999999e-06,0.0,0 STARLINK-3249,1 49730U 21115G   22223.52303039 -.00000730  00000-0 -27781-4 0  9990,2 49730  53.2156 262.7260 0001529  57.7511 302.3630 15.08825996 38208,6917.9230000000025,95.438,540.846,538.73,0.0
49730.0,STARLINK-3249,PAYLOAD,2022-08-12 02:51:38,15.08821989,0.000154,53.2155,260.0494,55.6923,304.4215,8.9715e-05,1.139e-05,0.0,0 STARLINK-3249,1 49730U 21115G   22224.11919515  .00001139  00000-0  89715-4 0  9995,2 49730  53.2155 260.0494 0001540  55.6923 304.4215 15.08821989 39407,6917.935,95.439,540.866,538.735,0.0
49730.0,STARLINK-3249,PAYLOAD,2022-08-12 12:23:57,15.08826016,0.0001579,53.2155,258.2653,56.2342,303.88,0.00011512,1.544e-05,0.0,0 STARLINK-3249,1 49730U 21115G   22224.51663604  .00001544  00000-0  11512-3 0  9993,2 49730  53.2155 258.2653 0001579  56.2342 303.8800 15.08826016 38359,6917.9230000000025,95.438,540.88,538.696,0.0
49730.0,STARLINK-3249,PAYLOAD,2022-08-12 18:45:29,15.08828254,0.000159,53.2155,257.0758,56.243,303.8713,0.00012476,1.697e-05,0.0,0 STARLINK-3249,1 49730U 21115G   22224.78159666  .00001697  00000-0  12476-3 0  9999,2 49730  53.2155 257.0758 0001590  56.2430 303.8713 15.08828254 38396,6917.916,95.438,540.881,538.681,0.0
49730.0,STARLINK-3249,PAYLOAD,2022-08-13 10:39:21,15.08835239,0.0001615,53.2154,254.1022,57.1017,303.0131,0.00011781,1.587e-05,0.0,0 STARLINK-3249,1 49730U 21115G   22225.44399661  .00001587  00000-0  11781-3 0  9990,2 49730  53.2154 254.1022 0001615  57.1017 303.0131 15.08835239 38494,6917.895,95.438,540.877,538.643,0.0
49730.0,STARLINK-3249,PAYLOAD,2022-08-14 10:30:07,15.08845096,0.0001663,53.2154,249.6416,58.0029,302.1125,0.00010904,1.448e-05,0.0,0 STARLINK-3249,1 49730U 21115G   22226.43759077  .00001448  00000-0  10904-3 0  9993,2 49730  53.2154 249.6416 0001663  58.0029 302.1125 15.08845096 38648,6917.865,95.437,540.88,538.5790000000002,0.0
49730.0,STARLINK-3249,PAYLOAD,2022-08-15 10:20:55,15.08838109,0.0001689,53.2151,245.1805,56.0538,304.0615,-2.541800000000001e-05,-6.93e-06,0.0,0 STARLINK-3249,1 49730U 21115G   22227.43119638 -.00000693  00000-0 -25418-4 0  9997,2 49730  53.2151 245.1805 0001689  56.0538 304.0615 15.08838109 38797,6917.886,95.438,540.92,538.5830000000002,0.0
49730.0,STARLINK-3249,PAYLOAD,2022-08-15 18:17:50,15.08840423,0.0001696999999999,53.2152,243.6934,56.1612,303.9541,-1.376e-05,-5.07e-06,0.0,0 STARLINK-3249,1 49730U 21115G   22227.76239421 -.00000507  00000-0 -13760-4 0  9997,2 49730  53.2152 243.6934 0001697  56.1612 303.9541 15.08840423 38841,6917.879,95.438,540.918,538.57,0.0
